[{"OBJECT_NAME":"STARLINK-35837","OBJECT_ID":"2025-280V","EPOCH":"2026-02-26T06:33:59.685408","MEAN_MOTION":14.98331945,"ECCENTRICITY":0.00017049,"INCLINATION":70.005,"RA_OF_ASC_NODE":3.3305,"ARG_OF_PERICENTER":313.3754,"MEAN_ANOMALY":46.7263,"EPHEMERIS_TYPE":0,"CLASSIFICATION_TYPE":"U","NORAD_CAT_ID":66840,"ELEMENT_SET_NO":999,"REV_AT_EPOCH":1436,"BSTAR":0.00023643184,"MEAN_MOTION_DOT":2.729e-5,"MEAN_MOTION_DDOT":0},{"OBJECT_NAME":"STARLINK-35715","OBJECT_ID":"2025-280W","EPOCH":"2026-02-26T06:46:00.561216","MEAN_MOTION":14.98343304,"ECCENTRICITY":0.00022242,"INCLINATION":70.0038,"RA_OF_ASC_NODE":3.3549,"ARG_OF_PERICENTER":274.9809,"MEAN_ANOMALY":85.1096,"EPHEMERIS_TYPE":0,"CLASSIFICATION_TYPE":"U","NORAD_CAT_ID":66841,"ELEMENT_SET_NO":999,"REV_AT_EPOCH":1436,"BSTAR":0.00020962282,"MEAN_MOTION_DOT":2.41e-5,"MEAN_MOTION_DDOT":0},{"OBJECT_NAME":"STARLINK-35769","OBJECT_ID":"2025-280X","EPOCH":"2026-02-26T05:33:52.792992","MEAN_MOTION":14.98338668,"ECCENTRICITY":0.00027279,"INCLINATION":70.0029,"RA_OF_ASC_NODE":3.178,"ARG_OF_PERICENTER":253.8769,"MEAN_ANOMALY":106.209,"EPHEMERIS_TYPE":0,"CLASSIFICATION_TYPE":"U","NORAD_CAT_ID":66842,"ELEMENT_SET_NO":999,"REV_AT_EPOCH":1436,"BSTAR":0.0003154752,"MEAN_MOTION_DOT":3.674e-5,"MEAN_MOTION_DDOT":0},{"OBJECT_NAME":"STARLINK-35997","OBJECT_ID":"2025-280Y","EPOCH":"2026-02-26T05:57:55.521792","MEAN_MOTION":14.98341425,"ECCENTRICITY":0.00024581,"INCLINATION":70.0027,"RA_OF_ASC_NODE":3.2368,"ARG_OF_PERICENTER":271.209,"MEAN_ANOMALY":88.8787,"EPHEMERIS_TYPE":0,"CLASSIFICATION_TYPE":"U","NORAD_CAT_ID":66843,"ELEMENT_SET_NO":999,"REV_AT_EPOCH":1436,"BSTAR":0.00054004496,"MEAN_MOTION_DOT":6.358e-5,"MEAN_MOTION_DDOT":0},{"OBJECT_NAME":"STARLINK-36073","OBJECT_ID":"2025-280Z","EPOCH":"2026-02-26T06:21:59.474880","MEAN_MOTION":14.98348256,"ECCENTRICITY":0.00016299,"INCLINATION":70.0059,"RA_OF_ASC_NODE":3.2952,"ARG_OF_PERICENTER":299.2285,"MEAN_ANOMALY":60.8711,"EPHEMERIS_TYPE":0,"CLASSIFICATION_TYPE":"U","NORAD_CAT_ID":66844,"ELEMENT_SET_NO":999,"REV_AT_EPOCH":1433,"BSTAR":2.4409e-6,"MEAN_MOTION_DOT":-6.4e-7,"MEAN_MOTION_DDOT":0},{"OBJECT_NAME":"STARLINK-36068","OBJECT_ID":"2025-280AA","EPOCH":"2026-02-26T05:39:53.659872","MEAN_MOTION":14.98332825,"ECCENTRICITY":0.000234,"INCLINATION":70.0046,"RA_OF_ASC_NODE":3.1911,"ARG_OF_PERICENTER":274.8069,"MEAN_ANOMALY":85.2823,"EPHEMERIS_TYPE":0,"CLASSIFICATION_TYPE":"U","NORAD_CAT_ID":66845,"ELEMENT_SET_NO":999,"REV_AT_EPOCH":1436,"BSTAR":0.0003524847,"MEAN_MOTION_DOT":4.116e-5,"MEAN_MOTION_DDOT":0},{"OBJECT_NAME":"STARLINK-36055","OBJECT_ID":"2025-280AB","EPOCH":"2026-02-26T06:39:59.916384","MEAN_MOTION":14.98342593,"ECCENTRICITY":0.0002141,"INCLINATION":70.0024,"RA_OF_ASC_NODE":3.3398,"ARG_OF_PERICENTER":277.1888,"MEAN_ANOMALY":82.9028,"EPHEMERIS_TYPE":0,"CLASSIFICATION_TYPE":"U","NORAD_CAT_ID":66846,"ELEMENT_SET_NO":999,"REV_AT_EPOCH":1437,"BSTAR":0.00060908759,"MEAN_MOTION_DOT":7.184e-5,"MEAN_MOTION_DDOT":0},{"OBJECT_NAME":"STARLINK-36061","OBJECT_ID":"2025-280AC","EPOCH":"2026-02-26T06:52:01.566336","MEAN_MOTION":14.9833425,"ECCENTRICITY":0.00021042,"INCLINATION":70.0035,"RA_OF_ASC_NODE":3.3682,"ARG_OF_PERICENTER":277.8307,"MEAN_ANOMALY":82.2613,"EPHEMERIS_TYPE":0,"CLASSIFICATION_TYPE":"U","NORAD_CAT_ID":66847,"ELEMENT_SET_NO":999,"REV_AT_EPOCH":1436,"BSTAR":0.00074583938,"MEAN_MOTION_DOT":8.818e-5,"MEAN_MOTION_DDOT":0},{"OBJECT_NAME":"STARLINK-36091","OBJECT_ID":"2025-281A","EPOCH":"2026-02-25T23:57:56.712384","MEAN_MOTION":15.27605277,"ECCENTRICITY":0.0002188,"INCLINATION":43,"RA_OF_ASC_NODE":49.8329,"ARG_OF_PERICENTER":154.9292,"MEAN_ANOMALY":205.1666,"EPHEMERIS_TYPE":0,"CLASSIFICATION_TYPE":"U","NORAD_CAT_ID":66848,"ELEMENT_SET_NO":999,"REV_AT_EPOCH":1307,"BSTAR":0.00096564,"MEAN_MOTION_DOT":0.00026427,"MEAN_MOTION_DDOT":0},{"OBJECT_NAME":"STARLINK-36102","OBJECT_ID":"2025-281B","EPOCH":"2026-02-26T05:59:44.806560","MEAN_MOTION":15.27577058,"ECCENTRICITY":0.00016452,"INCLINATION":43.0009,"RA_OF_ASC_NODE":48.2778,"ARG_OF_PERICENTER":268.5208,"MEAN_ANOMALY":91.5455,"EPHEMERIS_TYPE":0,"CLASSIFICATION_TYPE":"U","NORAD_CAT_ID":66849,"ELEMENT_SET_NO":999,"REV_AT_EPOCH":1443,"BSTAR":0.0008640915,"MEAN_MOTION_DOT":0.0002359,"MEAN_MOTION_DDOT":0},{"OBJECT_NAME":"STARLINK-36105","OBJECT_ID":"2025-281C","EPOCH":"2026-02-25T23:37:35.457888","MEAN_MOTION":15.27601385,"ECCENTRICITY":7.446e-5,"INCLINATION":42.9968,"RA_OF_ASC_NODE":49.7243,"ARG_OF_PERICENTER":150.8657,"MEAN_ANOMALY":209.2236,"EPHEMERIS_TYPE":0,"CLASSIFICATION_TYPE":"U","NORAD_CAT_ID":66850,"ELEMENT_SET_NO":999,"REV_AT_EPOCH":1439,"BSTAR":0.00076322888,"MEAN_MOTION_DOT":0.00020813,"MEAN_MOTION_DDOT":0},{"OBJECT_NAME":"STARLINK-36094","OBJECT_ID":"2025-281D","EPOCH":"2026-02-26T00:45:50.526720","MEAN_MOTION":15.2759125,"ECCENTRICITY":0.0001389,"INCLINATION":43.0042,"RA_OF_ASC_NODE":49.2235,"ARG_OF_PERICENTER":263.3062,"MEAN_ANOMALY":96.7632,"EPHEMERIS_TYPE":0,"CLASSIFICATION_TYPE":"U","NORAD_CAT_ID":66851,"ELEMENT_SET_NO":999,"REV_AT_EPOCH":1440,"BSTAR":0.00094616,"MEAN_MOTION_DOT":0.00025875,"MEAN_MOTION_DDOT":0},{"OBJECT_NAME":"STARLINK-35992","OBJECT_ID":"2025-281E","EPOCH":"2026-02-26T00:40:17.964480","MEAN_MOTION":15.27574375,"ECCENTRICITY":0.0001353,"INCLINATION":43.0046,"RA_OF_ASC_NODE":49.1956,"ARG_OF_PERICENTER":255.3895,"MEAN_ANOMALY":104.6807,"EPHEMERIS_TYPE":0,"CLASSIFICATION_TYPE":"U","NORAD_CAT_ID":66852,"ELEMENT_SET_NO":999,"REV_AT_EPOCH":1440,"BSTAR":0.00089443,"MEAN_MOTION_DOT":0.00024428,"MEAN_MOTION_DDOT":0},{"OBJECT_NAME":"STARLINK-35986","OBJECT_ID":"2025-281F","EPOCH":"2026-02-26T00:34:45.500736","MEAN_MOTION":15.27578241,"ECCENTRICITY":0.0004661,"INCLINATION":43.0048,"RA_OF_ASC_NODE":49.1657,"ARG_OF_PERICENTER":299.5503,"MEAN_ANOMALY":60.4884,"EPHEMERIS_TYPE":0,"CLASSIFICATION_TYPE":"U","NORAD_CAT_ID":66853,"ELEMENT_SET_NO":999,"REV_AT_EPOCH":1440,"BSTAR":0.00049765,"MEAN_MOTION_DOT":0.00013459,"MEAN_MOTION_DDOT":0},{"OBJECT_NAME":"STARLINK-36087","OBJECT_ID":"2025-281G","EPOCH":"2026-02-26T00:29:11.138784","MEAN_MOTION":15.27603713,"ECCENTRICITY":0.0002075,"INCLINATION":43.0043,"RA_OF_ASC_NODE":49.1336,"ARG_OF_PERICENTER":267.9547,"MEAN_ANOMALY":92.1067,"EPHEMERIS_TYPE":0,"CLASSIFICATION_TYPE":"U","NORAD_CAT_ID":66854,"ELEMENT_SET_NO":999,"REV_AT_EPOCH":1440,"BSTAR":0.00072193,"MEAN_MOTION_DOT":0.00019671,"MEAN_MOTION_DDOT":0},{"OBJECT_NAME":"STARLINK-36090","OBJECT_ID":"2025-281H","EPOCH":"2026-02-26T00:14:23.136864","MEAN_MOTION":15.27603326,"ECCENTRICITY":9.05e-5,"INCLINATION":42.9995,"RA_OF_ASC_NODE":49.0518,"ARG_OF_PERICENTER":236.3864,"MEAN_ANOMALY":123.6901,"EPHEMERIS_TYPE":0,"CLASSIFICATION_TYPE":"U","NORAD_CAT_ID":66855,"ELEMENT_SET_NO":999,"REV_AT_EPOCH":1440,"BSTAR":0.00092967,"MEAN_MOTION_DOT":0.00025427,"MEAN_MOTION_DDOT":0}]
