STARLINK-35837          
1 66840U 25280V   26057.27360747  .00002729  00000+0  23643-3 0  9997
2 66840  70.0050   3.3305 0001704 313.3754  46.7263 14.98331945 14369
STARLINK-35715          
1 66841U 25280W   26057.28195094  .00002410  00000+0  20962-3 0  9998
2 66841  70.0038   3.3549 0002224 274.9809  85.1096 14.98343304 14360
STARLINK-35769          
1 66842U 25280X   26057.23186103  .00003674  00000+0  31548-3 0  9990
2 66842  70.0029   3.1780 0002727 253.8769 106.2090 14.98338668 14361
STARLINK-35997          
1 66843U 25280Y   26057.24855928  .00006358  00000+0  54004-3 0  9994
2 66843  70.0027   3.2368 0002458 271.2090  88.8787 14.98341425 14368
STARLINK-36073          
1 66844U 25280Z   26057.26527170 -.00000064  00000+0  24409-5 0  9999
2 66844  70.0059   3.2952 0001629 299.2285  60.8711 14.98348256 14331
STARLINK-36068          
1 66845U 25280AA  26057.23603773  .00004116  00000+0  35248-3 0  9993
2 66845  70.0046   3.1911 0002340 274.8069  85.2823 14.98332825 14365
STARLINK-36055          
1 66846U 25280AB  26057.27777681  .00007184  00000+0  60909-3 0  9998
2 66846  70.0024   3.3398 0002141 277.1888  82.9028 14.98342593 14372
STARLINK-36061          
1 66847U 25280AC  26057.28612924  .00008818  00000+0  74584-3 0  9997
2 66847  70.0035   3.3682 0002104 277.8307  82.2613 14.98334250 14366
STARLINK-36091          
1 66848U 25281A   26056.99857306  .00026427  00000+0  96564-3 0  9999
2 66848  43.0000  49.8329 0002188 154.9292 205.1666 15.27605277 13076
STARLINK-36102          
1 66849U 25281B   26057.24982415  .00023590  00000+0  86409-3 0  9994
2 66849  43.0009  48.2778 0001645 268.5208  91.5455 15.27577058 14432
STARLINK-36105          
1 66850U 25281C   26056.98443817  .00020813  00000+0  76323-3 0  9993
2 66850  42.9968  49.7243 0000744 150.8657 209.2236 15.27601385 14390
STARLINK-36094          
1 66851U 25281D   26057.03183480  .00025875  00000+0  94616-3 0  9996
2 66851  43.0042  49.2235 0001389 263.3062  96.7632 15.27591250 14408
STARLINK-35992          
1 66852U 25281E   26057.02798570  .00024428  00000+0  89443-3 0  9993
2 66852  43.0046  49.1956 0001353 255.3895 104.6807 15.27574375 14400
STARLINK-35986          
1 66853U 25281F   26057.02413774  .00013459  00000+0  49765-3 0  9999
2 66853  43.0048  49.1657 0004661 299.5503  60.4884 15.27578241 14402
STARLINK-36087          
1 66854U 25281G   26057.02026781  .00019671  00000+0  72193-3 0  9991
2 66854  43.0043  49.1336 0002075 267.9547  92.1067 15.27603713 14404
STARLINK-36090          
1 66855U 25281H   26057.00999001  .00025427  00000+0  92967-3 0  9991
2 66855  42.9995  49.0518 0000905 236.3864 123.6901 15.27603326 14409
